SUPERVIEW NEO-2 03      
1 62079U 24218B   26068.56191270  .00003926  00000+0  18696-3 0  9996
2 62079  97.4399  77.3104 0001687  89.5472 270.5956 15.19718665 71311
SUPERVIEW NEO-2 04      
1 62080U 24218C   26068.56191197  .00004175  00000+0  19862-3 0  9999
2 62080  97.4396  77.3157 0001369 109.3587 250.7796 15.19718850 71311
