[{"OBJECT_NAME":"SUPERVIEW NEO-2 03","OBJECT_ID":"2024-218B","EPOCH":"2026-03-09T13:29:09.257280","MEAN_MOTION":15.19718665,"ECCENTRICITY":0.0001687,"INCLINATION":97.4399,"RA_OF_ASC_NODE":77.3104,"ARG_OF_PERICENTER":89.5472,"MEAN_ANOMALY":270.5956,"EPHEMERIS_TYPE":0,"CLASSIFICATION_TYPE":"U","NORAD_CAT_ID":62079,"ELEMENT_SET_NO":999,"REV_AT_EPOCH":7131,"BSTAR":0.00018696,"MEAN_MOTION_DOT":3.926e-5,"MEAN_MOTION_DDOT":0},{"OBJECT_NAME":"SUPERVIEW NEO-2 04","OBJECT_ID":"2024-218C","EPOCH":"2026-03-09T13:29:09.194208","MEAN_MOTION":15.1971885,"ECCENTRICITY":0.0001369,"INCLINATION":97.4396,"RA_OF_ASC_NODE":77.3157,"ARG_OF_PERICENTER":109.3587,"MEAN_ANOMALY":250.7796,"EPHEMERIS_TYPE":0,"CLASSIFICATION_TYPE":"U","NORAD_CAT_ID":62080,"ELEMENT_SET_NO":999,"REV_AT_EPOCH":7131,"BSTAR":0.00019862,"MEAN_MOTION_DOT":4.175e-5,"MEAN_MOTION_DDOT":0}]
